{
    "type": "FeatureCollection",
    "features": [
        {
            "type": "Feature",
            "properties": {
                "Site": "50 Quint St",
                "Status detail": "No fleet charging currently",
                "Status": "Inactive",
                "Owner/User": "Private owner",
                "Fleet use": "76 Charging Spaces",
                "Other use proposed/Approved use": null,
                "matched_address": "50 QUINT ST, SAN FRANCISCO, CA, 94124",
                "zip": 94124
            },
            "geometry": {
                "type": "Point",
                "coordinates": [
                    -122.388371,
                    37.746304
                ]
            }
        },
        {
            "type": "Feature",
            "properties": {
                "Site": "1101-1123 Sutter St",
                "Status detail": "Submitted an application, currently no fleet charging in the city",
                "Status": "Inactive",
                "Owner/User": "Unknown",
                "Fleet use": "Uknown",
                "Other use proposed/Approved use": null,
                "matched_address": "1123 SUTTER ST, SAN FRANCISCO, CA, 94109",
                "zip": 94109
            },
            "geometry": {
                "type": "Point",
                "coordinates": [
                    -122.418863,
                    37.787854
                ]
            }
        },
        {
            "type": "Feature",
            "properties": {
                "Site": "2293 Powell St",
                "Status detail": "No fleet charging currently",
                "Status": "Inactive",
                "Owner/User": "Tesla",
                "Fleet use": "19 superchargers for Tesla Use",
                "Other use proposed/Approved use": "Application submitted to build a six-story, mixed-use residential building ",
                "matched_address": "2293 POWELL ST, SAN FRANCISCO, CA, 94133",
                "zip": 94133
            },
            "geometry": {
                "type": "Point",
                "coordinates": [
                    -122.412003,
                    37.805731
                ]
            }
        },
        {
            "type": "Feature",
            "properties": {
                "Site": "1201 08th St",
                "Status detail": "Approved for Fleet Charging, sitting empty",
                "Status": "Inactive",
                "Owner/User": "Unknown",
                "Fleet use": "Approved for Fleet Charging, sitting empty",
                "Other use proposed/Approved use": "Proposedfive-story building with 15 dwelling units and ground floor retail",
                "matched_address": "1201 8th St, San Francisco, CA 94107",
                "zip": 94107
            },
            "geometry": {
                "type": "Point",
                "coordinates": [
                    -122.399574,
                    37.766697
                ]
            }
        },
        {
            "type": "Feature",
            "properties": {
                "Site": "2270 McKinnon Ave",
                "Status detail": "No fleet charging currently",
                "Status": "Inactive",
                "Owner/User": "2270 McKinnon Ave LLC, National Cab Company Inc",
                "Fleet use": "Applied for change of use to fleet charging, closed without approval",
                "Other use proposed/Approved use": null,
                "matched_address": "2270 MCKINNON AVE, SAN FRANCISCO, CA, 94124",
                "zip": 94124
            },
            "geometry": {
                "type": "Point",
                "coordinates": [
                    -122.401479,
                    37.742872
                ]
            }
        },
        {
            "type": "Feature",
            "properties": {
                "Site": "130 Townsend Street",
                "Status detail": "Was a Cruise staging site",
                "Status": "Inactive",
                "Owner/User": "Cruise",
                "Fleet use": null,
                "Other use proposed/Approved use": null,
                "matched_address": "130 TOWNSEND ST, SAN FRANCISCO, CA, 94107",
                "zip": 94107
            },
            "geometry": {
                "type": "Point",
                "coordinates": [
                    -122.391441,
                    37.779968
                ]
            }
        },
        {
            "type": "Feature",
            "properties": {
                "Site": "2860 16th St",
                "Status detail": "No fleet charging currently",
                "Status": "Inactive",
                "Owner/User": "Unknown",
                "Fleet use": "Applied for Fleet Charging, but closed the application without approval ",
                "Other use proposed/Approved use": null,
                "matched_address": "2860 16TH ST, SAN FRANCISCO, CA, 94103",
                "zip": 94103
            },
            "geometry": {
                "type": "Point",
                "coordinates": [
                    -122.416944,
                    37.765272
                ]
            }
        },
        {
            "type": "Feature",
            "properties": {
                "Site": "1428 Yosemite Ave",
                "Status detail": "No fleet charging currently",
                "Status": "Inactive",
                "Owner/User": "Unknown",
                "Fleet use": "Applied for change of use to fleet charging, closed without approval",
                "Other use proposed/Approved use": null,
                "matched_address": "1428 YOSEMITE AVE, SAN FRANCISCO, CA, 94124",
                "zip": 94124
            },
            "geometry": {
                "type": "Point",
                "coordinates": [
                    -122.388969,
                    37.725389
                ]
            }
        },
        {
            "type": "Feature",
            "properties": {
                "Site": "1111 Pennsylvania Avenue",
                "Status detail": "Approved for Fleet Charging",
                "Status": "Approved",
                "Owner/User": "Private owner",
                "Fleet use": "52 Charging Spaces",
                "Other use proposed/Approved use": "Application submitted to build a labratory on the site",
                "matched_address": "1111 PENNSYLVANIA AVE, SAN FRANCISCO, CA, 94107",
                "zip": 94107
            },
            "geometry": {
                "type": "Point",
                "coordinates": [
                    -122.392558,
                    37.75247
                ]
            }
        },
        {
            "type": "Feature",
            "properties": {
                "Site": "2450 Alameda Street",
                "Status detail": "Has AV fleet ",
                "Status": "Active",
                "Owner/User": "Zoox",
                "Fleet use": "15 Charging Spaces, and R&D",
                "Other use proposed/Approved use": null,
                "matched_address": "2450 ALAMEDA ST, SAN FRANCISCO, CA, 94103",
                "zip": 94103
            },
            "geometry": {
                "type": "Point",
                "coordinates": [
                    -122.409236,
                    37.768327
                ]
            }
        },
        {
            "type": "Feature",
            "properties": {
                "Site": "5th and Brannan",
                "Status detail": "Waymo staging site",
                "Status": "Active",
                "Owner/User": "Unknown",
                "Fleet use": "Waymo Staging Site",
                "Other use proposed/Approved use": null,
                "matched_address": "5th St & Brannan St, SAN FRANCISCO, CA 94107",
                "zip": 94107
            },
            "geometry": {
                "type": "Point",
                "coordinates": [
                    -122.398819,
                    37.776653
                ]
            }
        },
        {
            "type": "Feature",
            "properties": {
                "Site": "1160 Mission St",
                "Status detail": "Fleet Charging",
                "Status": "Active",
                "Owner/User": "TeraWatt and Waymo",
                "Fleet use": "65 Charging Spaces",
                "Other use proposed/Approved use": null,
                "matched_address": "1160 MISSION ST, SAN FRANCISCO, CA, 94103",
                "zip": 94103
            },
            "geometry": {
                "type": "Point",
                "coordinates": [
                    -122.412173,
                    37.778319
                ]
            }
        },
        {
            "type": "Feature",
            "properties": {
                "Site": "140 14th St",
                "Status detail": "Waymo staging site",
                "Status": "Active",
                "Owner/User": "Waymo",
                "Fleet use": "Applied for Fleet Charging, but closed the application without approval \nNow used as Waymo Staging Site",
                "Other use proposed/Approved use": null,
                "matched_address": "140 14TH ST, SAN FRANCISCO, CA, 94103",
                "zip": 94103
            },
            "geometry": {
                "type": "Point",
                "coordinates": [
                    -122.416643,
                    37.76853
                ]
            }
        },
        {
            "type": "Feature",
            "properties": {
                "Site": "777 Harrison St",
                "Status detail": "Waymo staging site",
                "Status": "Active",
                "Owner/User": "Waymo renting from Whole Foods property",
                "Fleet use": "Waymo staging site",
                "Other use proposed/Approved use": null,
                "matched_address": "777 HARRISON ST, SAN FRANCISCO, CA, 94107",
                "zip": 94107
            },
            "geometry": {
                "type": "Point",
                "coordinates": [
                    -122.399156,
                    37.781072
                ]
            }
        },
        {
            "type": "Feature",
            "properties": {
                "Site": "120 Perry St",
                "Status detail": "Waymo staging site",
                "Status": "Active",
                "Owner/User": "Waymo renting from California Departmrnt of Transportation District 4 property",
                "Fleet use": "Waymo staging site",
                "Other use proposed/Approved use": null,
                "matched_address": "120 PERRY ST, SAN FRANCISCO, CA, 94107",
                "zip": 94107
            },
            "geometry": {
                "type": "Point",
                "coordinates": [
                    -122.396944,
                    37.782121
                ]
            }
        },
        {
            "type": "Feature",
            "properties": {
                "Site": "350 Pacific Ave",
                "Status detail": "Waymo fleet charging",
                "Status": "Active",
                "Owner/User": "Waymo renting from Reese Charles W TR",
                "Fleet use": null,
                "Other use proposed/Approved use": null,
                "matched_address": "350 PACIFIC AVE, SAN FRANCISCO, CA, 94111",
                "zip": 94111
            },
            "geometry": {
                "type": "Point",
                "coordinates": [
                    -122.401474,
                    37.797634
                ]
            }
        },
        {
            "type": "Feature",
            "properties": {
                "Site": "350 2nd St",
                "Status detail": "Waymo staging site",
                "Status": "Active",
                "Owner/User": "Waymo",
                "Fleet use": "Waymo Staging",
                "Other use proposed/Approved use": "Hotel",
                "matched_address": "350 2ND ST, SAN FRANCISCO, CA, 94107",
                "zip": 94107
            },
            "geometry": {
                "type": "Point",
                "coordinates": [
                    -122.395827,
                    37.784756
                ]
            }
        },
        {
            "type": "Feature",
            "properties": {
                "Site": "201 Toland St",
                "Status detail": "Waymo fleet charging",
                "Status": "Active",
                "Owner/User": "Waymo ",
                "Fleet use": "Waymo Main Site",
                "Other use proposed/Approved use": null,
                "matched_address": "201 TOLAND ST, SAN FRANCISCO, CA, 94124",
                "zip": 94124
            },
            "geometry": {
                "type": "Point",
                "coordinates": [
                    -122.397027,
                    37.745897
                ]
            }
        },
        {
            "type": "Feature",
            "properties": {
                "Site": "825 Sansome St.",
                "Status detail": "Application denied",
                "Status": "Denied",
                "Owner/User": "Tesla",
                "Fleet use": "One level of public parking garage, with two fleet charging levels",
                "Other use proposed/Approved use": null,
                "matched_address": "825 SANSOME ST, SAN FRANCISCO, CA, 94111",
                "zip": 94111
            },
            "geometry": {
                "type": "Point",
                "coordinates": [
                    -122.40218,
                    37.797831
                ]
            }
        },
        {
            "type": "Feature",
            "properties": {
                "Site": "465 Irwin St",
                "Status detail": "No fleet charging currently",
                "Status": "Denied",
                "Owner/User": "Unknown",
                "Fleet use": "Applied for change of use to fleet charging, closed without approval",
                "Other use proposed/Approved use": null,
                "matched_address": "465 IRWIN ST, SAN FRANCISCO, CA, 94107",
                "zip": 94107
            },
            "geometry": {
                "type": "Point",
                "coordinates": [
                    -122.398812,
                    37.767258
                ]
            }
        },
        {
            "type": "Feature",
            "properties": {
                "Site": "330 8th St",
                "Status detail": "Application withdrawn",
                "Status": "Withdrawn",
                "Owner/User": "Lyft",
                "Fleet use": "30 Charging Spaces",
                "Other use proposed/Approved use": null,
                "matched_address": "330 8TH ST, SAN FRANCISCO, CA, 94103",
                "zip": 94103
            },
            "geometry": {
                "type": "Point",
                "coordinates": [
                    -122.409928,
                    37.774802
                ]
            }
        },
        {
            "type": "Feature",
            "properties": {
                "Site": "1200 Larkin st",
                "Status detail": "Withdrew Application, no AV's currently",
                "Status": "Withdrawn",
                "Owner/User": "Sterling Organization",
                "Fleet use": "74 Charging Spaces ",
                "Other use proposed/Approved use": "Developer met with Planning in 2021 to discuss redeveloping the site into two commercial / retail units and 132 multifamily residential units including on-site inclusionary affordable housing units.",
                "matched_address": "1200 LARKIN ST, SAN FRANCISCO, CA, 94109",
                "zip": 94109
            },
            "geometry": {
                "type": "Point",
                "coordinates": [
                    -122.418691,
                    37.78944
                ]
            }
        },
        {
            "type": "Feature",
            "properties": {
                "Site": "1500 19th Ave",
                "Status detail": "Application withdrawn",
                "Status": "Withdrawn",
                "Owner/User": "Unknown",
                "Fleet use": "Application was submitted to convert automotive use to Fleet Charging use, 12 Charging Spaces",
                "Other use proposed/Approved use": null,
                "matched_address": "1500 19TH AVE, SAN FRANCISCO, CA, 94122",
                "zip": 94122
            },
            "geometry": {
                "type": "Point",
                "coordinates": [
                    -122.476683,
                    37.759784
                ]
            }
        },
        {
            "type": "Feature",
            "properties": {
                "Site": "1700 Pine St",
                "Status detail": "Abandoned Cruise infastructure",
                "Status": "Abandoned",
                "Owner/User": "Cruise",
                "Fleet use": "Cruise charging site, now sitting empty",
                "Other use proposed/Approved use": null,
                "matched_address": "1700 PINE ST, SAN FRANCISCO, CA, 94109",
                "zip": 94109
            },
            "geometry": {
                "type": "Point",
                "coordinates": [
                    -122.423866,
                    37.789252
                ]
            }
        },
        {
            "type": "Feature",
            "properties": {
                "Site": "855 Geary St",
                "Status detail": "Abandoned Cruise infastructure",
                "Status": "Abandoned",
                "Owner/User": "Cruise",
                "Fleet use": "Cruise site, 20 chargers",
                "Other use proposed/Approved use": null,
                "matched_address": "855 GEARY ST, SAN FRANCISCO, CA, 94109",
                "zip": 94109
            },
            "geometry": {
                "type": "Point",
                "coordinates": [
                    -122.417332,
                    37.786137
                ]
            }
        },
        {
            "type": "Feature",
            "properties": {
                "Site": "241 Loomis St",
                "Status detail": "Abandoned Cruise infastructure",
                "Status": "Abandoned",
                "Owner/User": "Cruise",
                "Fleet use": "Cruise charging site, now sitting empty",
                "Other use proposed/Approved use": null,
                "matched_address": "241 LOOMIS ST, SAN FRANCISCO, CA, 94124",
                "zip": 94124
            },
            "geometry": {
                "type": "Point",
                "coordinates": [
                    -122.405529,
                    37.738824
                ]
            }
        },
        {
            "type": "Feature",
            "properties": {
                "Site": "301 Brannan",
                "Status detail": "Abandoned Cruise infastructure",
                "Status": "Abandoned",
                "Owner/User": "Cruise",
                "Fleet use": "Cruise HQ site, adjacent parking lot formerly used as AV staging lot.  Application was submitted in 2019 to store, maintain and charge vehicles in the building's 5,797-square-foot parking area. ",
                "Other use proposed/Approved use": null,
                "matched_address": "301 BRANNAN ST, SAN FRANCISCO, CA, 94107",
                "zip": 94107
            },
            "geometry": {
                "type": "Point",
                "coordinates": [
                    -122.392076,
                    37.781761
                ]
            }
        },
        {
            "type": "Feature",
            "properties": {
                "Site": "333 Brannan",
                "Status detail": "Abandoned Cruise infastructure",
                "Status": "Abandoned",
                "Owner/User": "Cruise",
                "Fleet use": "Cruise HQ site. Application was submitted in 2019 to store, maintain and charge vehicles in the building's 12,250-square-foot parking area.  ",
                "Other use proposed/Approved use": null,
                "matched_address": "333 BRANNAN ST, SAN FRANCISCO, CA, 94107",
                "zip": 94107
            },
            "geometry": {
                "type": "Point",
                "coordinates": [
                    -122.392675,
                    37.781289
                ]
            }
        },
        {
            "type": "Feature",
            "properties": {
                "Site": "640 Chavez ",
                "Status detail": "Abandoned Cruise infastructure",
                "Status": "Abandoned",
                "Owner/User": "Cruise",
                "Fleet use": "Unknown",
                "Other use proposed/Approved use": null,
                "matched_address": "640 CESAR CHAVEZ ST, SAN FRANCISCO, CA 94124",
                "zip": 94124
            },
            "geometry": {
                "type": "Point",
                "coordinates": [
                    -122.384315,
                    37.750961
                ]
            }
        },
        {
            "type": "Feature",
            "properties": {
                "Site": "345 Brannan",
                "Status detail": "Abandoned Cruise infastructure",
                "Status": "Abandoned",
                "Owner/User": "Cruise",
                "Fleet use": "Cruise HQ site. Application was submitted in 2020 to store, charge and maintain vehicles in the building's 7,167-square-foot parking area.",
                "Other use proposed/Approved use": null,
                "matched_address": "345 BRANNAN ST, SAN FRANCISCO, CA, 94107",
                "zip": 94107
            },
            "geometry": {
                "type": "Point",
                "coordinates": [
                    -122.392864,
                    37.781141
                ]
            }
        }
    ]
}